{
  "norad_id": 65945,
  "name": "SHIYAN-31",
  "history": [
    {
      "epoch": "2026-03-28T21:03:31.965984Z",
      "apogee_km": 502.8652085118192,
      "perigee_km": 488.7898038304038,
      "latitude_deg": 2.4010897703240742e-05,
      "longitude_deg": 99.03111924481932,
      "height_km": 498.4458729748025,
      "semi_major_axis_km": 6873.964506171112,
      "eccentricity": 0.00102382,
      "inclination_deg": 80.0022,
      "raan_deg": 241.2059,
      "arg_perigee_deg": 87.0083,
      "mean_anomaly_deg": 273.2317,
      "mean_motion_rev_day": 15.2332242
    },
    {
      "epoch": "2026-03-29T04:56:27.771936Z",
      "apogee_km": 502.83974987937563,
      "perigee_km": 488.76192518810694,
      "latitude_deg": -4.296889728284677e-05,
      "longitude_deg": -19.961626391389668,
      "height_km": 498.27719637064496,
      "semi_major_axis_km": 6873.937837533741,
      "eccentricity": 0.001024,
      "inclination_deg": 80.0021,
      "raan_deg": 240.7694,
      "arg_perigee_deg": 85.8504,
      "mean_anomaly_deg": 274.3894,
      "mean_motion_rev_day": 15.23331285
    },
    {
      "epoch": "2026-03-30T04:35:14.496864Z",
      "apogee_km": 502.78589362832645,
      "perigee_km": 488.70543238142636,
      "latitude_deg": -1.2129644742550966e-05,
      "longitude_deg": -16.93702710665386,
      "height_km": 497.83890179114786,
      "semi_major_axis_km": 6873.882663004876,
      "eccentricity": 0.0010242,
      "inclination_deg": 80.0021,
      "raan_deg": 239.4598,
      "arg_perigee_deg": 82.7165,
      "mean_anomaly_deg": 277.5227,
      "mean_motion_rev_day": 15.23349626
    },
    {
      "epoch": "2026-03-30T06:09:49.576320Z",
      "apogee_km": 502.7888500797053,
      "perigee_km": 488.6931383871706,
      "latitude_deg": 1.7142108682998452e-05,
      "longitude_deg": -40.73522719659577,
      "height_km": 497.8079168795395,
      "semi_major_axis_km": 6873.877994233438,
      "eccentricity": 0.00102531,
      "inclination_deg": 80.0022,
      "raan_deg": 239.3725,
      "arg_perigee_deg": 82.5089,
      "mean_anomaly_deg": 277.7304,
      "mean_motion_rev_day": 15.23351178
    },
    {
      "epoch": "2026-03-30T14:02:44.868192Z",
      "apogee_km": 502.7926530711593,
      "perigee_km": 488.6452951366173,
      "latitude_deg": -2.032252565883988e-05,
      "longitude_deg": -159.7259194709658,
      "height_km": 497.6608028494097,
      "semi_major_axis_km": 6873.855974103888,
      "eccentricity": 0.00102907,
      "inclination_deg": 80.0022,
      "raan_deg": 238.9359,
      "arg_perigee_deg": 81.5136,
      "mean_anomaly_deg": 278.7258,
      "mean_motion_rev_day": 15.23358498
    },
    {
      "epoch": "2026-03-30T20:21:05.014080Z",
      "apogee_km": 502.7923503623151,
      "perigee_km": 488.6088738335129,
      "latitude_deg": 1.4915765143616005e-05,
      "longitude_deg": 105.08188418127746,
      "height_km": 497.55104683830024,
      "semi_major_axis_km": 6873.837612097914,
      "eccentricity": 0.0010317,
      "inclination_deg": 80.0022,
      "raan_deg": 238.5866,
      "arg_perigee_deg": 80.7884,
      "mean_anomaly_deg": 279.4511,
      "mean_motion_rev_day": 15.23364602
    },
    {
      "epoch": "2026-03-31T19:59:49.865856Z",
      "apogee_km": 502.74429608993705,
      "perigee_km": 488.54169186638046,
      "latitude_deg": -5.894156589134556e-05,
      "longitude_deg": 108.11399200098161,
      "height_km": 497.12185217341505,
      "semi_major_axis_km": 6873.779993978159,
      "eccentricity": 0.0010331,
      "inclination_deg": 80.0023,
      "raan_deg": 237.2767,
      "arg_perigee_deg": 77.7474,
      "mean_anomaly_deg": 282.491,
      "mean_motion_rev_day": 15.23383756
    },
    {
      "epoch": "2026-04-01T19:38:33.585792Z",
      "apogee_km": 502.67299596834164,
      "perigee_km": 488.492512115753,
      "latitude_deg": 1.5401923805658578e-05,
      "longitude_deg": 111.15095461195064,
      "height_km": 496.7012216585237,
      "semi_major_axis_km": 6873.719754042047,
      "eccentricity": 0.0010315,
      "inclination_deg": 80.0028,
      "raan_deg": 235.9669,
      "arg_perigee_deg": 74.7261,
      "mean_anomaly_deg": 285.5107,
      "mean_motion_rev_day": 15.23403782
    },
    {
      "epoch": "2026-04-02T20:51:50.729760Z",
      "apogee_km": 502.54917580034635,
      "perigee_km": 488.41975951143377,
      "latitude_deg": 1.711945157052859e-05,
      "longitude_deg": 90.39661526537962,
      "height_km": 496.220059534281,
      "semi_major_axis_km": 6873.62146765589,
      "eccentricity": 0.0010278,
      "inclination_deg": 80.0035,
      "raan_deg": 234.5698,
      "arg_perigee_deg": 71.4179,
      "mean_anomaly_deg": 288.8165,
      "mean_motion_rev_day": 15.23436457
    },
    {
      "epoch": "2026-04-02T22:26:25.467936Z",
      "apogee_km": 502.5318911202776,
      "perigee_km": 488.42132468915406,
      "latitude_deg": 2.677798359760441e-05,
      "longitude_deg": 66.5998375998852,
      "height_km": 496.1869012365795,
      "semi_major_axis_km": 6873.6136079047155,
      "eccentricity": 0.00102643,
      "inclination_deg": 80.0036,
      "raan_deg": 234.4825,
      "arg_perigee_deg": 71.1746,
      "mean_anomaly_deg": 289.0595,
      "mean_motion_rev_day": 15.2343907
    },
    {
      "epoch": "2026-04-03T20:30:31.220928Z",
      "apogee_km": 502.3719175014385,
      "perigee_km": 488.41590034396177,
      "latitude_deg": -3.7114346200149004e-05,
      "longitude_deg": 93.44744415395148,
      "height_km": 495.7885897916687,
      "semi_major_axis_km": 6873.530908922699,
      "eccentricity": 0.0010152,
      "inclination_deg": 80.004,
      "raan_deg": 233.2604,
      "arg_perigee_deg": 68.1854,
      "mean_anomaly_deg": 292.0453,
      "mean_motion_rev_day": 15.23466564
    },
    {
      "epoch": "2026-04-04T18:34:35.501664Z",
      "apogee_km": 502.24149615171154,
      "perigee_km": 488.3997272133056,
      "latitude_deg": 1.3034536368576501e-06,
      "longitude_deg": 120.30091910903108,
      "height_km": 495.39744880497847,
      "semi_major_axis_km": 6873.457611682508,
      "eccentricity": 0.0010069,
      "inclination_deg": 80.0044,
      "raan_deg": 232.038,
      "arg_perigee_deg": 65.1207,
      "mean_anomaly_deg": 295.1067,
      "mean_motion_rev_day": 15.23490933
    },
    {
      "epoch": "2026-04-05T15:04:04.215648Z",
      "apogee_km": 502.1532113178164,
      "perigee_km": 488.38001022640674,
      "latitude_deg": -3.958654167009536e-05,
      "longitude_deg": 170.95482082722825,
      "height_km": 495.0400754487169,
      "semi_major_axis_km": 6873.403610772111,
      "eccentricity": 0.00100192,
      "inclination_deg": 80.0045,
      "raan_deg": 230.9031,
      "arg_perigee_deg": 62.1629,
      "mean_anomaly_deg": 298.0613,
      "mean_motion_rev_day": 15.23508887
    },
    {
      "epoch": "2026-04-05T19:47:47.647392Z",
      "apogee_km": 502.14209377252064,
      "perigee_km": 488.3691895971133,
      "latitude_deg": -2.4195738272849722e-05,
      "longitude_deg": 99.56775548874914,
      "height_km": 494.96081802848596,
      "semi_major_axis_km": 6873.392641684817,
      "eccentricity": 0.0010019,
      "inclination_deg": 80.0044,
      "raan_deg": 230.6412,
      "arg_perigee_deg": 61.5166,
      "mean_anomaly_deg": 298.707,
      "mean_motion_rev_day": 15.23512534
    },
    {
      "epoch": "2026-04-06T06:49:48.838656Z",
      "apogee_km": 502.1188587147117,
      "perigee_km": 488.3391345646487,
      "latitude_deg": -6.029865459017717e-05,
      "longitude_deg": -67.00145194778582,
      "height_km": 494.78165648595717,
      "semi_major_axis_km": 6873.36599663968,
      "eccentricity": 0.0010024,
      "inclination_deg": 80.0045,
      "raan_deg": 230.0301,
      "arg_perigee_deg": 60.0761,
      "mean_anomaly_deg": 300.1461,
      "mean_motion_rev_day": 15.23521393
    },
    {
      "epoch": "2026-04-07T20:39:34.125696Z",
      "apogee_km": 502.08144341476145,
      "perigee_km": 488.2180240728012,
      "latitude_deg": 3.797692259079454e-05,
      "longitude_deg": 81.91087303343059,
      "height_km": 494.1821778484814,
      "semi_major_axis_km": 6873.286733743781,
      "eccentricity": 0.0010085,
      "inclination_deg": 80.0039,
      "raan_deg": 227.9347,
      "arg_perigee_deg": 55.1783,
      "mean_anomaly_deg": 305.0393,
      "mean_motion_rev_day": 15.23547747
    },
    {
      "epoch": "2026-04-08T13:59:51.614592Z",
      "apogee_km": 502.0513936561629,
      "perigee_km": 488.1804819024319,
      "latitude_deg": -5.99990251358948e-05,
      "longitude_deg": -179.83447096674612,
      "height_km": 493.93577749476367,
      "semi_major_axis_km": 6873.252937779297,
      "eccentricity": 0.00100905,
      "inclination_deg": 80.0039,
      "raan_deg": 226.9743,
      "arg_perigee_deg": 53.0261,
      "mean_anomaly_deg": 307.1889,
      "mean_motion_rev_day": 15.23558984
    },
    {
      "epoch": "2026-04-09T19:56:42.515232Z",
      "apogee_km": 501.9603256479231,
      "perigee_km": 488.1424676952547,
      "latitude_deg": -5.2577378695819496e-05,
      "longitude_deg": 88.06474164110247,
      "height_km": 493.5280285622893,
      "semi_major_axis_km": 6873.188396671589,
      "eccentricity": 0.0010052,
      "inclination_deg": 80.004,
      "raan_deg": 225.3155,
      "arg_perigee_deg": 49.1866,
      "mean_anomaly_deg": 311.0232,
      "mean_motion_rev_day": 15.23580444
    },
    {
      "epoch": "2026-04-10T11:42:24.435648Z",
      "apogee_km": 501.8858777347368,
      "perigee_km": 488.14232479264956,
      "latitude_deg": -4.306722501269431e-05,
      "longitude_deg": -149.88023448803733,
      "height_km": 493.33874319080013,
      "semi_major_axis_km": 6873.151101263693,
      "eccentricity": 0.0009998,
      "inclination_deg": 80.004,
      "raan_deg": 224.4425,
      "arg_perigee_deg": 47.2075,
      "mean_anomaly_deg": 312.9992,
      "mean_motion_rev_day": 15.23592845
    }
  ]
}